NORAD_CAT_ID,OBJECT_NAME,OBJECT_TYPE,EPOCH,MEAN_MOTION,ECCENTRICITY,INCLINATION,RA_OF_ASC_NODE,ARG_OF_PERICENTER,MEAN_ANOMALY,BSTAR,MEAN_MOTION_DOT,MEAN_MOTION_DDOT,TLE_LINE0,TLE_LINE1,TLE_LINE2,SEMIMAJOR_AXIS,PERIOD,APOGEE,PERIGEE,DECAYED
55938.0,STARLINK-5909,PAYLOAD,2023-06-30 22:00:00,15.51213842,0.0003639,69.9995,245.8997,272.9621,31.621,2.97e-05,1.579e-05,0.0,0 STARLINK-5909,1 55938U 23037AA  23181.91667824  .00001579  00000-0  29700-4 0  9997,2 55938  69.9995 245.8997 0003639 272.9621  31.6210 15.51213842 17028,6791.318,92.831,415.654,410.712,0.0
55938.0,STARLINK-5909,PAYLOAD,2023-07-02 04:00:00,15.51236733,0.0003775,69.9998,242.4822,267.7144,175.2767,-1.6763e-05,-1.15e-05,0.0,0 STARLINK-5909,1 55938U 23037AA  23183.16667824 -.00001150  00000-0 -16763-4 0  9998,2 55938  69.9998 242.4822 0003775 267.7144 175.2767 15.51236733 17211,6791.251,92.829,415.68,410.552,0.0
55938.0,STARLINK-5909,PAYLOAD,2023-07-03 12:08:38,15.51221018,0.0003552,69.9975,238.8208,271.3468,88.7312,-1.9073e-06,-2.77e-06,0.0,0 STARLINK-5909,1 55938U 23037AA  23184.50600136 -.00000277  00000-0 -19073-5 0  9997,2 55938  69.9975 238.8208 0003552 271.3468  88.7312 15.51221018 17423,6791.297,92.83,415.574,410.75,0.0
55938.0,STARLINK-5909,PAYLOAD,2023-07-04 06:46:29,15.48347373,0.0007426,69.9964,236.7144,103.5618,256.6394,-0.0068788,-0.00349992,0.0,0 STARLINK-5909,1 55938U 23037AA  23185.28228358 -.00349992  00000-0 -68788-2 0  9999,2 55938  69.9964 236.7144 0007426 103.5618 256.6394 15.48347373 17542,6799.697,93.002,426.612,416.513,0.0
55938.0,STARLINK-5909,PAYLOAD,2023-07-04 22:00:01,15.49078536,0.0003432,69.9988,234.9687,266.9697,44.5527,-0.016987,-0.0084526,0.0,0 STARLINK-5909,1 55938U 23037AA  23185.91668981 -.00845260  00000-0 -16987-1 0  9991,2 55938  69.9988 234.9687 0003432 266.9697  44.5527 15.49078536 17640,6797.557,92.958,421.755,417.089,0.0
55938.0,STARLINK-5909,PAYLOAD,2023-07-05 14:00:01,15.47803448,0.0003348,69.9986,233.1535,275.2449,151.4622,-0.018703,-0.00885928,0.0,0 STARLINK-5909,1 55938U 23037AA  23186.58335648 -.00885928  00000-0 -18703-1 0  9999,2 55938  69.9986 233.1535 0003348 275.2449 151.4622 15.47803448 17746,6801.29,93.035,425.432,420.878,0.0
55938.0,STARLINK-5909,PAYLOAD,2023-07-06 06:00:00,15.46524518,0.0003337,69.9988,231.3422,268.5889,270.1175,-0.02084,-0.00952151,0.0,0 STARLINK-5909,1 55938U 23037AA  23187.25001157 -.00952151  00000-0 -20840-1 0  9997,2 55938  69.9988 231.3422 0003337 268.5889 270.1175 15.46524518 17844,6805.039,93.112,429.175,424.633,0.0
55938.0,STARLINK-5909,PAYLOAD,2023-07-06 22:00:01,15.45163268,0.0003521,69.9987,229.5341,267.5114,20.2103,-0.019327,-0.00839807,0.0,0 STARLINK-5909,1 55938U 23037AA  23187.91668981 -.00839807  00000-0 -19327-1 0  9994,2 55938  69.9987 229.5341 0003521 267.5114  20.2103 15.45163268 17954,6809.035,93.194,433.298,428.503,0.0
55938.0,STARLINK-5909,PAYLOAD,2023-07-07 14:00:01,15.43886847,0.0003711,69.9987,227.7295,274.5859,118.8695,-0.021352,-0.00895961,0.0,0 STARLINK-5909,1 55938U 23037AA  23188.58334491 -.00895961  00000-0 -21352-1 0  9998,2 55938  69.9987 227.7295 0003711 274.5859 118.8695 15.43886847 18052,6812.788,93.271,437.181,432.125,0.0
55938.0,STARLINK-5909,PAYLOAD,2023-07-08 06:00:00,15.4260873,0.0003519,69.9992,225.9284,271.7524,224.3792,-0.023801,-0.00951461,0.0,0 STARLINK-5909,1 55938U 23037AA  23189.25001157 -.00951461  00000-0 -23801-1 0  9992,2 55938  69.9992 225.9284 0003519 271.7524 224.3792 15.42608730 18154,6816.55,93.348,440.814,436.017,0.0
55938.0,STARLINK-5909,PAYLOAD,2023-07-08 22:00:00,15.41251944,0.0003359,69.9992,224.1309,266.6691,329.0213,-0.022023,-0.00849297,0.0,0 STARLINK-5909,1 55938U 23037AA  23189.91667824 -.00849297  00000-0 -22023-1 0  9992,2 55938  69.9992 224.1309 0003359 266.6691 329.0213 15.41251944 18266,6820.55,93.431,444.706,440.124,0.0
55938.0,STARLINK-5909,PAYLOAD,2023-07-09 06:00:00,15.40650569,0.0003478,69.9993,223.2337,269.5465,14.7369,-0.025393,-0.00950776,0.0,0 STARLINK-5909,1 55938U 23037AA  23190.25001157 -.00950776  00000-0 -25393-1 0  9990,2 55938  69.9993 223.2337 0003478 269.5465  14.7369 15.40650569 18312,6822.325,93.467,446.563,441.817,0.0
55938.0,STARLINK-5909,PAYLOAD,2023-07-09 22:00:00,15.39291598,0.0003453,69.9993,221.4417,268.9891,110.1605,-0.023322,-0.00843335,0.0,0 STARLINK-5909,1 55938U 23037AA  23190.91667824 -.00843335  00000-0 -23322-1 0  9994,2 55938  69.9993 221.4417 0003453 268.9891 110.1605 15.39291598 18416,6826.34,93.55,450.562,445.848,0.0
55938.0,STARLINK-5909,PAYLOAD,2023-07-10 06:00:00,15.38689536,0.0003444,69.9995,220.5473,272.5095,152.8866,-0.026958,-0.00946462,0.0,0 STARLINK-5909,1 55938U 23037AA  23191.25001157 -.00946462  00000-0 -26958-1 0  9996,2 55938  69.9995 220.5473 0003444 272.5095 152.8866 15.38689536 18466,6828.12,93.586,452.337,447.634,0.0
55938.0,STARLINK-5909,PAYLOAD,2023-07-10 22:00:00,15.37337398,0.000322,69.9994,218.7604,268.1104,247.4552,-0.024906,-0.00844705,0.0,0 STARLINK-5909,1 55938U 23037AA  23191.91667824 -.00844705  00000-0 -24906-1 0  9996,2 55938  69.9994 218.7604 0003220 268.1104 247.4552 15.37337398 18563,6832.124,93.668,456.189,451.789,0.0
55938.0,STARLINK-5909,PAYLOAD,2023-07-11 06:00:00,15.36722399,0.0003224,69.9998,217.8684,268.7288,290.7414,-0.028172,-0.00929135,0.0,0 STARLINK-5909,1 55938U 23037AA  23192.25001157 -.00929135  00000-0 -28172-1 0  9995,2 55938  69.9998 217.8684 0003224 268.7288 290.7414 15.36722399 18610,6833.946,93.706,458.015,453.608,0.0
55938.0,STARLINK-5909,PAYLOAD,2023-07-12 14:00:01,15.34132368,0.0003299,69.9992,214.3089,272.7641,94.5656,-0.031201,-0.00945462,0.0,0 STARLINK-5909,1 55938U 23037AA  23193.58335648 -.00945462  00000-0 -31201-1 0  9995,2 55938  69.9992 214.3089 0003299 272.7641  94.5656 15.34132368 18825,6841.636,93.864,465.758,461.244,0.0
55938.0,STARLINK-5909,PAYLOAD,2023-07-13 18:00:00,15.31815388,0.0003168,69.9989,211.2061,268.8051,55.0411,-0.031962,-0.00903719,0.0,0 STARLINK-5909,1 55938U 23037AA  23194.75001157 -.00903719  00000-0 -31962-1 0  9993,2 55938  69.9989 211.2061 0003168 268.8051  55.0411 15.31815388 19002,6848.533,94.006,472.568,468.228,0.0
55938.0,STARLINK-5909,PAYLOAD,2023-07-14 14:00:01,15.30222451,0.0003032,69.9983,208.9966,270.5302,324.9788,-0.035638,-0.00966382,0.0,0 STARLINK-5909,1 55938U 23037AA  23195.58334491 -.00966382  00000-0 -35638-1 0  9994,2 55938  69.9983 208.9966 0003032 270.5302 324.9788 15.30222451 19133,6853.285,94.104,477.228,473.072,0.0
55938.0,STARLINK-5909,PAYLOAD,2023-07-15 06:00:02,15.28871927,0.0003214,69.9984,207.2331,268.4828,36.9337,-0.034431,-0.00889634,0.0,0 STARLINK-5909,1 55938U 23037AA  23196.25002315 -.00889634  00000-0 -34431-1 0  9990,2 55938  69.9984 207.2331 0003214 268.4828  36.9337 15.28871927 19239,6857.32,94.187,481.389,476.981,0.0
55938.0,STARLINK-5909,PAYLOAD,2023-07-15 22:00:00,15.27574348,0.0003279,69.9982,205.4729,266.3947,105.6408,-0.035278,-0.00877034,0.0,0 STARLINK-5909,1 55938U 23037AA  23196.91667824 -.00877034  00000-0 -35278-1 0  9996,2 55938  69.9982 205.4729 0003279 266.3947 105.6408 15.27574348 19338,6861.203,94.267,485.318,480.818,0.0
55938.0,STARLINK-5909,PAYLOAD,2023-07-16 14:00:01,15.26305979,0.0003112,69.9979,203.7161,273.9048,161.6872,-0.040043,-0.009632,0.0,0 STARLINK-5909,1 55938U 23037AA  23197.58334491 -.00963200  00000-0 -40043-1 0  9998,2 55938  69.9979 203.7161 0003112 273.9048 161.6872 15.26305979 19436,6865.004,94.345,489.005,484.732,0.0
55938.0,STARLINK-5909,PAYLOAD,2023-07-17 02:00:01,15.25337558,0.000321,69.9985,202.4009,265.2763,35.9334,-0.041758,-0.00974588,0.0,0 STARLINK-5909,1 55938U 23037AA  23198.08334491 -.00974588  00000-0 -41758-1 0  9999,2 55938  69.9985 202.4009 0003210 265.2763  35.9334 15.25337558 19519,6867.909,94.405,491.979,487.569,0.0
55938.0,STARLINK-5909,PAYLOAD,2023-07-17 14:00:01,15.24349678,0.0003005,69.9981,201.0874,272.5806,252.5552,-0.042564,-0.00965062,0.0,0 STARLINK-5909,1 55938U 23037AA  23198.58335648 -.00965062  00000-0 -42564-1 0  9992,2 55938  69.9981 201.0874 0003005 272.5806 252.5552 15.24349678 19582,6870.876,94.467,494.806,490.676,0.0
55938.0,STARLINK-5909,PAYLOAD,2023-07-18 06:00:00,15.22998563,0.0003058,69.9986,199.3392,269.5581,311.2766,-0.040834,-0.0089449,0.0,0 STARLINK-5909,1 55938U 23037AA  23199.25001157 -.00894490  00000-0 -40834-1 0  9996,2 55938  69.9986 199.3392 0003058 269.5581 311.2766 15.22998563 19698,6874.939,94.55,498.906,494.702,0.0
55938.0,STARLINK-5909,PAYLOAD,2023-07-18 22:00:00,15.21719476,0.0003136,69.9986,197.5947,263.2908,10.1388,-0.043399,-0.00913903,0.0,0 STARLINK-5909,1 55938U 23037AA  23199.91667824 -.00913903  00000-0 -43399-1 0  9998,2 55938  69.9986 197.5947 0003136 263.2908  10.1388 15.21719476 19794,6878.791,94.63,502.813,498.499,0.0
55938.0,STARLINK-5909,PAYLOAD,2023-07-19 14:00:01,15.20437594,0.0003177,69.9985,195.8534,270.0337,52.8775,-0.048078,-0.0097043,0.0,0 STARLINK-5909,1 55938U 23037AA  23200.58334491 -.00970430  00000-0 -48078-1 0  9992,2 55938  69.9985 195.8534 0003177 270.0337  52.8775 15.20437594 19894,6882.657,94.71,506.708,502.335,0.0
55938.0,STARLINK-5909,PAYLOAD,2023-07-20 06:00:00,15.19086835,0.0003169,69.9991,194.1159,269.5968,99.6869,-0.045803,-0.00894463,0.0,0 STARLINK-5909,1 55938U 23037AA  23201.25001157 -.00894463  00000-0 -45803-1 0  9991,2 55938  69.9991 194.1159 0003169 269.5968  99.6869 15.19086835 19990,6886.736,94.794,510.784,506.419,0.0
55938.0,STARLINK-5909,PAYLOAD,2023-07-20 22:00:00,15.17811051,0.0003178,69.9992,192.3817,265.9229,146.5694,-0.049199,-0.00923692,0.0,0 STARLINK-5909,1 55938U 23037AA  23201.91667824 -.00923692  00000-0 -49199-1 0  9992,2 55938  69.9992 192.3817 0003178 265.9229 146.5694 15.17811051 20097,6890.595,94.873,514.649,510.27,0.0
55938.0,STARLINK-5909,PAYLOAD,2023-07-21 22:00:00,15.15857086,0.0003042,69.9996,189.7871,268.3715,203.0909,-0.052281,-0.00927717,0.0,0 STARLINK-5909,1 55938U 23037AA  23202.91667824 -.00927717  00000-0 -52281-1 0  9991,2 55938  69.9996 189.7871 0003042 268.3715 203.0909 15.15857086 20249,6896.515,94.996,520.478,516.282,0.0
